NORAD_CAT_ID,OBJECT_NAME,OBJECT_TYPE,EPOCH,MEAN_MOTION,ECCENTRICITY,INCLINATION,RA_OF_ASC_NODE,ARG_OF_PERICENTER,MEAN_ANOMALY,BSTAR,MEAN_MOTION_DOT,MEAN_MOTION_DDOT,TLE_LINE0,TLE_LINE1,TLE_LINE2,SEMIMAJOR_AXIS,PERIOD,APOGEE,PERIGEE,DECAYED
53552.0,STARLINK-4495,PAYLOAD,2023-12-20 13:12:27,15.08841247,0.0001459,53.2171,100.9739,84.4112,275.7047,-7.2941e-06,-4.04e-06,0.0,0 STARLINK-4495,1 53552U 22101AB  23354.55031285 -.00000404  00000-0 -72941-5 0  9990,2 53552  53.2171 100.9739 0001459  84.4112 275.7047 15.08841247 74653,6917.877,95.437,540.751,538.732,0.0
53552.0,STARLINK-4495,PAYLOAD,2023-12-20 14:47:49,15.08845026,0.0001481,53.2171,100.6765,81.3551,278.7609,2.5894e-05,1.24e-06,0.0,0 STARLINK-4495,1 53552U 22101AB  23354.61654993  .00000124  00000-0  25894-4 0  9995,2 53552  53.2171 100.6765 0001481  81.3551 278.7609 15.08845026 74013,6917.865,95.437,540.755,538.705,0.0
53552.0,STARLINK-4495,PAYLOAD,2023-12-21 11:27:50,15.08839367,0.0002042,53.2182,96.8128,52.0818,308.0358,0.0001843,2.646e-05,0.0,0 STARLINK-4495,1 53552U 22101AB  23355.47767324  .00002646  00000-0  18430-3 0  9991,2 53552  53.2182  96.8128 0002042  52.0818 308.0358 15.08839367 74142,6917.882,95.438,541.16,538.335,0.0
53552.0,STARLINK-4495,PAYLOAD,2023-12-21 13:03:14,15.08841255,0.0002237,53.2174,96.5163,49.4819,310.6367,0.00023781,3.499e-05,0.0,0 STARLINK-4495,1 53552U 22101AB  23355.54391494  .00003499  00000-0  23781-3 0  9992,2 53552  53.2174  96.5163 0002237  49.4819 310.6367 15.08841255 74807,6917.877,95.437,541.289,538.194,0.0
53552.0,STARLINK-4495,PAYLOAD,2023-12-22 11:18:38,15.08836953,0.0002262,53.2177,92.3533,55.6831,304.4375,3.7657e-06,-2.28e-06,0.0,0 STARLINK-4495,1 53552U 22101AB  23356.47128097 -.00000228  00000-0  37657-5 0  9999,2 53552  53.2177  92.3533 0002262  55.6831 304.4375 15.08836953 74298,6917.89,95.438,541.32,538.19,0.0
53552.0,STARLINK-4495,PAYLOAD,2023-12-22 12:54:01,15.08837412,0.0002172,53.2173,92.0574,56.7448,303.3752,1.4397e-05,-5.9e-07,0.0,0 STARLINK-4495,1 53552U 22101AB  23356.53752098 -.00000059  00000-0  14397-4 0  9997,2 53552  53.2173  92.0574 0002172  56.7448 303.3752 15.08837412 74953,6917.888,95.438,541.256,538.251,0.0
53552.0,STARLINK-4495,PAYLOAD,2023-12-23 11:09:25,15.08848819,0.0001499,53.2152,87.8955,66.749,293.366,0.00011137,1.485e-05,0.0,0 STARLINK-4495,1 53552U 22101AB  23357.46487351  .00001485  00000-0  11137-3 0  9998,2 53552  53.2152  87.8955 0001499  66.7490 293.3660 15.08848819 74447,6917.853,95.437,540.755,538.681,0.0
53552.0,STARLINK-4495,PAYLOAD,2023-12-23 12:44:48,15.08846631,0.0001521,53.2154,87.5977,69.2343,290.8811,0.00023975,3.53e-05,0.0,0 STARLINK-4495,1 53552U 22101AB  23357.53111480  .00003530  00000-0  23975-3 0  9999,2 53552  53.2154  87.5977 0001521  69.2343 290.8811 15.08846631 75105,6917.86,95.437,540.777,538.673,0.0
53552.0,STARLINK-4495,PAYLOAD,2023-12-24 11:00:12,15.0884771,0.000163,53.216,83.4354,54.4,305.7144,0.00017822,2.55e-05,0.0,0 STARLINK-4495,1 53552U 22101AB  23358.45847548  .00002550  00000-0  17822-3 0  9997,2 53552  53.2160  83.4354 0001630  54.4000 305.7144 15.08847710 74599,6917.857,95.437,540.849,538.594,0.0
53552.0,STARLINK-4495,PAYLOAD,2023-12-24 12:35:33,15.08880361,0.0001325,53.2148,83.1377,81.8996,278.2146,0.00063141,9.786e-05,0.0,0 STARLINK-4495,1 53552U 22101AB  23358.52469602  .00009786  00000-0  63141-3 0  9999,2 53552  53.2148  83.1377 0001325  81.8996 278.2146 15.08880361 75255,6917.757,95.435,540.539,538.705,0.0
53552.0,STARLINK-4495,PAYLOAD,2023-12-25 12:26:22,15.08841507,0.0001464,53.2162,78.6744,115.3673,244.7471,6.2376e-05,7.05e-06,0.0,0 STARLINK-4495,1 53552U 22101AB  23359.51831081  .00000705  00000-0  62376-4 0  9995,2 53552  53.2162  78.6744 0001464 115.3673 244.7471 15.08841507 74759,6917.876,95.437,540.754,538.728,0.0
53552.0,STARLINK-4495,PAYLOAD,2023-12-26 10:41:46,15.08832499,0.0001421,53.2169,74.5115,96.1414,263.974,-3.9498e-05,-9.16e-06,0.0,0 STARLINK-4495,1 53552U 22101AB  23360.44568277 -.00000916  00000-0 -39498-4 0  9998,2 53552  53.2169  74.5115 0001421  96.1414 263.9740 15.08832499 74892,6917.903,95.438,540.751,538.785,0.0
53552.0,STARLINK-4495,PAYLOAD,2023-12-26 12:17:09,15.08835527,0.0001449,53.217,74.2132,100.373,259.7425,-3.6556e-05,-8.7e-06,0.0,0 STARLINK-4495,1 53552U 22101AB  23360.51192054 -.00000870  00000-0 -36556-4 0  9993,2 53552  53.2170  74.2132 0001449 100.3730 259.7425 15.08835527 75551,6917.894,95.438,540.761,538.757,0.0
53552.0,STARLINK-4495,PAYLOAD,2023-12-27 10:32:33,15.08836427,0.0001527,53.2175,70.0504,111.419,248.6965,0.00015803,2.228e-05,0.0,0 STARLINK-4495,1 53552U 22101AB  23361.43927777  .00002228  00000-0  15803-3 0  9991,2 53552  53.2175  70.0504 0001527 111.4190 248.6965 15.08836427 75043,6917.891,95.438,540.813,538.7,0.0
53552.0,STARLINK-4495,PAYLOAD,2023-12-27 12:07:56,15.08841283,0.0001548,53.2171,69.7529,104.2006,255.9158,0.00019391,2.8e-05,0.0,0 STARLINK-4495,1 53552U 22101AB  23361.50551506  .00002800  00000-0  19391-3 0  9994,2 53552  53.2171  69.7529 0001548 104.2006 255.9158 15.08841283 75704,6917.876,95.437,540.812,538.671,0.0
53552.0,STARLINK-4495,PAYLOAD,2023-12-28 11:58:44,15.08837677,0.0001856,53.2185,65.2949,65.073,295.0455,0.0001876,2.699e-05,0.0,0 STARLINK-4495,1 53552U 22101AB  23362.49912357  .00002699  00000-0  18760-3 0  9993,2 53552  53.2185  65.2949 0001856  65.0730 295.0455 15.08837677 75208,6917.887,95.438,541.036,538.469,0.0
53552.0,STARLINK-4495,PAYLOAD,2023-12-28 13:34:07,15.08840508,0.0001672,53.2186,64.9968,84.7112,275.4071,0.00017719,2.533e-05,0.0,0 STARLINK-4495,1 53552U 22101AB  23362.56536086  .00002533  00000-0  17719-3 0  9992,2 53552  53.2186  64.9968 0001672  84.7112 275.4071 15.08840508 75869,6917.879,95.438,540.901,538.587,0.0
53552.0,STARLINK-4495,PAYLOAD,2023-12-29 11:49:31,15.08842236,0.0001714,53.2178,60.8328,74.7956,285.3225,3.1374e-05,2.11e-06,0.0,0 STARLINK-4495,1 53552U 22101AB  23363.49272455  .00000211  00000-0  31374-4 0  9997,2 53552  53.2178  60.8328 0001714  74.7956 285.3225 15.08842236 76005,6917.874,95.437,540.924,538.553,0.0
53552.0,STARLINK-4495,PAYLOAD,2023-12-30 10:04:54,15.08849416,0.0001562,53.2174,56.6693,91.2218,268.8953,5.6478e-05,6.11e-06,0.0,0 STARLINK-4495,1 53552U 22101AB  23364.42007693  .00000611  00000-0  56478-4 0  9997,2 53552  53.2174  56.6693 0001562  91.2218 268.8953 15.08849416 75498,6917.852,95.437,540.797,538.636,0.0
53552.0,STARLINK-4495,PAYLOAD,2023-12-31 03:34:09,15.08834855,0.0001867,53.2169,53.4023,61.7055,298.4125,0.00010819,1.434e-05,0.0,0 STARLINK-4495,1 53552U 22101AB  23365.14872532  .00001434  00000-0  10819-3 0  9991,2 53552  53.2169  53.4023 0001867  61.7055 298.4125 15.08834855 75607,6917.896,95.438,541.053,538.47,0.0
53552.0,STARLINK-4495,PAYLOAD,2023-12-31 13:06:28,15.08839223,0.0001486,53.2164,51.6131,89.1144,271.0018,3.3809e-05,2.5e-06,0.0,0 STARLINK-4495,1 53552U 22101AB  23365.54616354  .00000250  00000-0  33809-4 0  9993,2 53552  53.2164  51.6131 0001486  89.1144 271.0018 15.08839223 76313,6917.883,95.438,540.776,538.72,0.0
53552.0,STARLINK-4495,PAYLOAD,2024-01-01 09:46:29,15.08839873,0.000169,53.2172,47.7473,103.6989,256.4192,4.5458e-05,4.35e-06,0.0,0 STARLINK-4495,1 53552U 22101AB  24001.40728294  .00000435  00000-0  45458-4 0  9991,2 53552  53.2172  47.7473 0001690 103.6989 256.4192 15.08839873 75795,6917.881,95.438,540.915,538.577,0.0
53552.0,STARLINK-4495,PAYLOAD,2024-01-02 08:01:53,15.08838647,0.0001703,53.2177,43.5849,102.8996,257.2186,7.9557e-05,9.78e-06,0.0,0 STARLINK-4495,1 53552U 22101AB  24002.33464453  .00000978  00000-0  79557-4 0  9997,2 53552  53.2177  43.5849 0001703 102.8996 257.2186 15.08838647 76583,6917.885,95.438,540.928,538.571,0.0
53552.0,STARLINK-4495,PAYLOAD,2024-01-03 03:06:31,15.08835392,0.0001779,53.2187,40.02,104.1432,255.9758,2.0395e-05,3.6e-07,0.0,0 STARLINK-4495,1 53552U 22101AB  24003.12953072  .00000036  00000-0  20395-4 0  9996,2 53552  53.2187  40.0200 0001779 104.1432 255.9758 15.08835392 76056,6917.894,95.438,540.99,538.529,0.0
53552.0,STARLINK-4495,PAYLOAD,2024-01-03 07:52:40,15.08835459,0.0001753,53.2186,39.1273,106.3245,253.794,1.3714e-05,-7e-07,0.0,0 STARLINK-4495,1 53552U 22101AB  24003.32825105 -.00000070  00000-0  13714-4 0  9999,2 53552  53.2186  39.1273 0001753 106.3245 253.7940 15.08835459 76730,6917.894,95.438,540.972,538.547,0.0
53552.0,STARLINK-4495,PAYLOAD,2024-01-04 09:18:50,15.08839187,0.0001458,53.2179,34.3697,96.1816,263.9342,3.4427e-05,2.6e-06,0.0,0 STARLINK-4495,1 53552U 22101AB  24004.38809021  .00000260  00000-0  34427-4 0  9999,2 53552  53.2179  34.3697 0001458  96.1816 263.9342 15.08839187 76248,6917.883,95.438,540.757,538.739,0.0
53552.0,STARLINK-4495,PAYLOAD,2024-01-04 12:29:36,15.08842612,0.0001494,53.2177,33.7714,97.7677,262.3485,5.3674e-05,5.66e-06,0.0,0 STARLINK-4495,1 53552U 22101AB  24004.52056706  .00000566  00000-0  53674-4 0  9993,2 53552  53.2177  33.7714 0001494  97.7677 262.3485 15.08842612 76913,6917.872,95.437,540.771,538.704,0.0
53552.0,STARLINK-4495,PAYLOAD,2024-01-05 10:45:01,15.0883919,0.0001414,53.217,29.6058,93.6908,266.4246,4.7547e-05,4.69e-06,0.0,0 STARLINK-4495,1 53552U 22101AB  24005.44793142  .00000469  00000-0  47547-4 0  9991,2 53552  53.2170  29.6058 0001414  93.6908 266.4246 15.08839190 76406,6917.883,95.438,540.726,538.77,0.0
53552.0,STARLINK-4495,PAYLOAD,2024-01-06 09:00:24,15.08850596,0.0001444,53.217,25.445,88.1394,271.9764,9.5098e-05,1.226e-05,0.0,0 STARLINK-4495,1 53552U 22101AB  24006.37528263  .00001226  00000-0  95098-4 0  9990,2 53552  53.2170  25.4450 0001444  88.1394 271.9764 15.08850596 76541,6917.848,95.437,540.712,538.714,0.0
53552.0,STARLINK-4495,PAYLOAD,2024-01-06 23:18:53,15.08837676,0.0001441,53.2177,22.7687,96.3911,263.7245,5.5584e-05,5.97e-06,0.0,0 STARLINK-4495,1 53552U 22101AB  24006.97145073  .00000597  00000-0  55584-4 0  9996,2 53552  53.2177  22.7687 0001441  96.3911 263.7245 15.08837676 76630,6917.887,95.438,540.749,538.756,0.0
